{
  "norad_id": 63303,
  "name": "KINEIS-4A",
  "history": [
    {
      "epoch": "2026-03-27T09:45:24.725088Z",
      "apogee_km": 655.4773590181067,
      "perigee_km": 651.6774205618631,
      "latitude_deg": 4.690988587725479e-05,
      "longitude_deg": -118.70811788118205,
      "height_km": 658.4826939799701,
      "semi_major_axis_km": 7031.714389789984,
      "eccentricity": 0.0002702,
      "inclination_deg": 97.9809,
      "raan_deg": 212.4867,
      "arg_perigee_deg": 176.552,
      "mean_anomaly_deg": 183.5707,
      "mean_motion_rev_day": 14.72349551
    }
  ]
}